OBJECT_NAME,OBJECT_ID,EPOCH,MEAN_MOTION,ECCENTRICITY,INCLINATION,RA_OF_ASC_NODE,ARG_OF_PERICENTER,MEAN_ANOMALY,EPHEMERIS_TYPE,CLASSIFICATION_TYPE,NORAD_CAT_ID,ELEMENT_SET_NO,REV_AT_EPOCH,BSTAR,MEAN_MOTION_DOT,MEAN_MOTION_DDOT
STARLINK-38073,2026-159M,2026-07-18T06:00:02.000160,15.89402404,.00015599,97.2866,38.0976,75.4556,4.8698,0,U,69986,999,234,-.64739864E-2,-.1852412E-1,.92000899E-3
STARLINK-38099,2026-159N,2026-07-18T06:00:02.000160,15.89590525,.00015713,97.2866,38.0985,74.0292,8.5590,0,U,69987,999,234,-.63555241E-2,-.1835867E-1,.906419E-3
STARLINK-38064,2026-159P,2026-07-18T06:00:02.000160,15.89952187,.00015689,97.2866,38.1001,71.6051,15.6143,0,U,69988,999,234,-.61638807E-2,-.1813301E-1,.8889223E-3
STARLINK-38080,2026-159Q,2026-07-18T06:00:02.000160,15.89771624,.00015969,97.2864,38.0994,72.8532,12.0857,0,U,69989,999,234,-.62505337E-2,-.1822134E-1,.89541408E-3
STARLINK-38070,2026-159R,2026-07-18T06:00:02.000160,15.90124928,.00015928,97.2866,38.1009,74.1057,15.4470,0,U,69990,999,234,-.6049261E-2,-.17953E-1,.87404197E-3
STARLINK-38042,2026-159S,2026-07-18T06:00:02.000160,15.90306705,.00015969,97.2867,38.1017,73.4964,18.1303,0,U,69991,999,234,-.59565417E-2,-.1784154E-1,.86551721E-3
STARLINK-38071,2026-159T,2026-07-18T06:00:02.000160,15.90482362,.00015641,97.2866,38.1027,70.7732,22.9668,0,U,69992,999,234,-.58764291E-2,-.17759E-1,.85957115E-3
STARLINK-38082,2026-159U,2026-07-18T06:00:02.000160,15.90656045,.00015649,97.2866,38.1034,76.3862,19.4714,0,U,69993,999,234,-.57886982E-2,-.1764927E-1,.85117502E-3
STARLINK-38090,2026-159V,2026-07-18T06:00:02.000160,15.90819379,.00015655,97.2868,38.1044,71.7245,26.2787,0,U,69994,999,234,-.56967993E-2,-.1751481E-1,.84051038E-3
STARLINK-38084,2026-159W,2026-07-18T06:00:02.000160,15.90983481,.0001573,97.2869,38.1054,74.0481,26.2005,0,U,69995,999,234,-.56226282E-2,-.1743215E-1,.83450664E-3
STARLINK-38085,2026-159X,2026-07-18T06:00:02.000160,15.91147186,.00016088,97.2867,38.1064,73.6721,28.5689,0,U,69996,999,234,-.55299804E-2,-.1728979E-1,.82321738E-3
STARLINK-38091,2026-159Y,2026-07-18T06:00:02.000160,15.91303069,.0001629,97.2868,38.1071,68.6771,35.7479,0,U,69997,999,234,-.54569132E-2,-.1719832E-1,.81640736E-3
STARLINK-38086,2026-159Z,2026-07-18T06:00:02.000160,15.91460800,.00016392,97.2869,38.1081,71.9781,34.5121,0,U,69998,999,234,-.53770087E-2,-.1708462E-1,.80767302E-3
SARAMAGO,2026-067CY,2026-07-18T06:18:28.579392,15.20498321,.00056756,97.4599,157.4185,254.6394,105.4215,0,U,100000,999,1642,.18928701E-3,.4068E-4,0
SOYUZ-MS 29,2026-162A,2026-07-18T02:08:01.938048,15.49037991,.00067939,51.6318,147.1664,308.8910,51.1472,0,U,100057,999,57558,.76428863E-4,.3768E-4,0
